{
  "type": "FeatureCollection",
  "features": [
    {
      "type": "Feature",
      "properties": {
        "norad_id": 66954,
        "name": "HULIANWANG DIGUI-115",
        "group": "last-30-days",
        "lat": -21.617916336839016,
        "lon": -18.384793801502433,
        "alt_km": 1023.6409504653493,
        "timestamp": "2025-12-21T09:37:21.374292+00:00",
        "meta_object_name": "HULIANWANG DIGUI-115",
        "meta_object_id": "2025-287B",
        "meta_epoch": "2025-12-20T14:23:56.755680",
        "meta_mean_motion": 13.66603826,
        "meta_eccentricity": 0.00094984,
        "meta_inclination": 86.4975,
        "meta_ra_of_asc_node": 343.2967,
        "meta_arg_of_pericenter": 182.0064,
        "meta_mean_anomaly": 178.1058,
        "meta_ephemeris_type": 0,
        "meta_classification_type": "U",
        "meta_norad_cat_id": 66954,
        "meta_element_set_no": 999,
        "meta_rev_at_epoch": 160,
        "meta_bstar": -9.79328e-07,
        "meta_mean_motion_dot": 1.6e-07,
        "meta_mean_motion_ddot": 0,
        "tle_line1": "1 66954U 25287B   25354.59996245  .00000016  00000+0 -97933-6 0  9996",
        "tle_line2": "2 66954  86.4975 343.2967 0009498 182.0064 178.1058 13.66603826  1604"
      },
      "geometry": {
        "type": "Point",
        "coordinates": [
          -18.384793801502433,
          -21.617916336839016
        ]
      }
    },
    {
      "type": "Feature",
      "properties": {
        "norad_id": 66955,
        "name": "HULIANWANG DIGUI-116",
        "group": "last-30-days",
        "lat": -14.151365148224206,
        "lon": -17.89591020764317,
        "alt_km": 1021.296828490953,
        "timestamp": "2025-12-21T09:37:21.374303+00:00",
        "meta_object_name": "HULIANWANG DIGUI-116",
        "meta_object_id": "2025-287C",
        "meta_epoch": "2025-12-20T16:07:29.631072",
        "meta_mean_motion": 13.67009251,
        "meta_eccentricity": 0.00086607,
        "meta_inclination": 86.4918,
        "meta_ra_of_asc_node": 343.2556,
        "meta_arg_of_pericenter": 174.268,
        "meta_mean_anomaly": 185.8579,
        "meta_ephemeris_type": 0,
        "meta_classification_type": "U",
        "meta_norad_cat_id": 66955,
        "meta_element_set_no": 999,
        "meta_rev_at_epoch": 161,
        "meta_bstar": 0.00012368885,
        "meta_mean_motion_dot": 1.2e-06,
        "meta_mean_motion_ddot": 0,
        "tle_line1": "1 66955U 25287C   25354.67187073  .00000120  00000+0  12369-3 0  9999",
        "tle_line2": "2 66955  86.4918 343.2556 0008660 174.2680 185.8579 13.67009251  1610"
      },
      "geometry": {
        "type": "Point",
        "coordinates": [
          -17.89591020764317,
          -14.151365148224206
        ]
      }
    },
    {
      "type": "Feature",
      "properties": {
        "norad_id": 66956,
        "name": "HULIANWANG DIGUI-117",
        "group": "last-30-days",
        "lat": -3.0584368905068846,
        "lon": -17.185993863724892,
        "alt_km": 1016.5377120618559,
        "timestamp": "2025-12-21T09:37:21.374313+00:00",
        "meta_object_name": "HULIANWANG DIGUI-117",
        "meta_object_id": "2025-287D",
        "meta_epoch": "2025-12-18T14:55:12.079776",
        "meta_mean_motion": 13.67770338,
        "meta_eccentricity": 0.00076767,
        "meta_inclination": 86.4971,
        "meta_ra_of_asc_node": 344.0126,
        "meta_arg_of_pericenter": 176.3616,
        "meta_mean_anomaly": 183.76,
        "meta_ephemeris_type": 0,
        "meta_classification_type": "U",
        "meta_norad_cat_id": 66956,
        "meta_element_set_no": 999,
        "meta_rev_at_epoch": 133,
        "meta_bstar": 1.0922436e-05,
        "meta_mean_motion_dot": 2.6e-07,
        "meta_mean_motion_ddot": 0,
        "tle_line1": "1 66956U 25287D   25352.62166759  .00000026  00000+0  10922-4 0  9990",
        "tle_line2": "2 66956  86.4971 344.0126 0007676 176.3616 183.7600 13.67770338  1332"
      },
      "geometry": {
        "type": "Point",
        "coordinates": [
          -17.185993863724892,
          -3.0584368905068846
        ]
      }
    },
    {
      "type": "Feature",
      "properties": {
        "norad_id": 66957,
        "name": "HULIANWANG DIGUI-118",
        "group": "last-30-days",
        "lat": 1.9052859729754708,
        "lon": -16.88622897699413,
        "alt_km": 1015.5572952099292,
        "timestamp": "2025-12-21T09:37:21.374323+00:00",
        "meta_object_name": "HULIANWANG DIGUI-118",
        "meta_object_id": "2025-287E",
        "meta_epoch": "2025-12-20T16:03:25.181280",
        "meta_mean_motion": 13.67845146,
        "meta_eccentricity": 0.00078058,
        "meta_inclination": 86.4953,
        "meta_ra_of_asc_node": 343.2634,
        "meta_arg_of_pericenter": 167.9283,
        "meta_mean_anomaly": 192.2065,
        "meta_ephemeris_type": 0,
        "meta_classification_type": "U",
        "meta_norad_cat_id": 66957,
        "meta_element_set_no": 999,
        "meta_rev_at_epoch": 161,
        "meta_bstar": 0.00012125742,
        "meta_mean_motion_dot": 1.19e-06,
        "meta_mean_motion_ddot": 0,
        "tle_line1": "1 66957U 25287E   25354.66904145  .00000119  00000+0  12126-3 0  9996",
        "tle_line2": "2 66957  86.4953 343.2634 0007805 167.9283 192.2065 13.67845146  1619"
      },
      "geometry": {
        "type": "Point",
        "coordinates": [
          -16.88622897699413,
          1.9052859729754708
        ]
      }
    },
    {
      "type": "Feature",
      "properties": {
        "norad_id": 66958,
        "name": "CZ-6A R/B",
        "group": "last-30-days",
        "lat": 84.81614922520203,
        "lon": 120.47716926326765,
        "alt_km": 829.4208551289794,
        "timestamp": "2025-12-21T09:37:21.374333+00:00",
        "meta_object_name": "CZ-6A R/B",
        "meta_object_id": "2025-287F",
        "meta_epoch": "2025-12-20T19:24:33.776928",
        "meta_mean_motion": 13.94920968,
        "meta_eccentricity": 0.01072686,
        "meta_inclination": 86.5061,
        "meta_ra_of_asc_node": 343.033,
        "meta_arg_of_pericenter": 77.897,
        "meta_mean_anomaly": 283.4198,
        "meta_ephemeris_type": 0,
        "meta_classification_type": "U",
        "meta_norad_cat_id": 66958,
        "meta_element_set_no": 999,
        "meta_rev_at_epoch": 166,
        "meta_bstar": 3.5646792e-05,
        "meta_mean_motion_dot": 6.9e-07,
        "meta_mean_motion_ddot": 0,
        "tle_line1": "1 66958U 25287F   25354.80872427  .00000069  00000+0  35647-4 0  9998",
        "tle_line2": "2 66958  86.5061 343.0330 0107268  77.8970 283.4198 13.94920968  1669"
      },
      "geometry": {
        "type": "Point",
        "coordinates": [
          120.47716926326765,
          84.81614922520203
        ]
      }
    },
    {
      "type": "Feature",
      "properties": {
        "norad_id": 66959,
        "name": "STARLINK-35887",
        "group": "last-30-days",
        "lat": 40.081149843751156,
        "lon": 178.7137076060213,
        "alt_km": 330.6517950473981,
        "timestamp": "2025-12-21T09:37:21.374343+00:00",
        "meta_object_name": "STARLINK-35887",
        "meta_object_id": "2025-288A",
        "meta_epoch": "2025-12-21T04:00:01.998720",
        "meta_mean_motion": 15.78786404,
        "meta_eccentricity": 0.0001703,
        "meta_inclination": 43.0013,
        "meta_ra_of_asc_node": 115.5824,
        "meta_arg_of_pericenter": 269.7277,
        "meta_mean_anomaly": 268.3531,
        "meta_ephemeris_type": 0,
        "meta_classification_type": "U",
        "meta_norad_cat_id": 66959,
        "meta_element_set_no": 999,
        "meta_rev_at_epoch": 318,
        "meta_bstar": -0.0081133,
        "meta_mean_motion_dot": -0.01318463,
        "meta_mean_motion_ddot": 0,
        "tle_line1": "1 66959U 25288A   25355.16668980 -.01318463  00000+0 -81133-2 0  9999",
        "tle_line2": "2 66959  43.0013 115.5824 0001703 269.7277 268.3531 15.78786404  3185"
      },
      "geometry": {
        "type": "Point",
        "coordinates": [
          178.7137076060213,
          40.081149843751156
        ]
      }
    },
    {
      "type": "Feature",
      "properties": {
        "norad_id": 66960,
        "name": "STARLINK-35879",
        "group": "last-30-days",
        "lat": 40.63016485360105,
        "lon": -178.81479485017724,
        "alt_km": 330.4960485211159,
        "timestamp": "2025-12-21T09:37:21.374357+00:00",
        "meta_object_name": "STARLINK-35879",
        "meta_object_id": "2025-288B",
        "meta_epoch": "2025-12-21T04:00:01.998720",
        "meta_mean_motion": 15.78780829,
        "meta_eccentricity": 0.0001553,
        "meta_inclination": 43.001,
        "meta_ra_of_asc_node": 115.5775,
        "meta_arg_of_pericenter": 269.4622,
        "meta_mean_anomaly": 270.5865,
        "meta_ephemeris_type": 0,
        "meta_classification_type": "U",
        "meta_norad_cat_id": 66960,
        "meta_element_set_no": 999,
        "meta_rev_at_epoch": 318,
        "meta_bstar": -0.0080951,
        "meta_mean_motion_dot": -0.01315437,
        "meta_mean_motion_ddot": 0,
        "tle_line1": "1 66960U 25288B   25355.16668980 -.01315437  00000+0 -80951-2 0  9996",
        "tle_line2": "2 66960  43.0010 115.5775 0001553 269.4622 270.5865 15.78780829  3183"
      },
      "geometry": {
        "type": "Point",
        "coordinates": [
          -178.81479485017724,
          40.63016485360105
        ]
      }
    }
  ]
}